NORAD_CAT_ID,OBJECT_NAME,OBJECT_TYPE,EPOCH,MEAN_MOTION,ECCENTRICITY,INCLINATION,RA_OF_ASC_NODE,ARG_OF_PERICENTER,MEAN_ANOMALY,BSTAR,MEAN_MOTION_DOT,MEAN_MOTION_DDOT,TLE_LINE0,TLE_LINE1,TLE_LINE2,SEMIMAJOR_AXIS,PERIOD,APOGEE,PERIGEE,DECAYED
51138.0,STARLINK-3177,PAYLOAD,2022-05-02 22:00:01,15.08805324,0.0002125,53.2138,134.3679,47.6269,309.4793,0.0031639,0.00050378,0.0,0 STARLINK-3177,1 51138U 22005AL  22122.91668981  .00050378  00000-0  31639-2 0  9991,2 51138  53.2138 134.3679 0002125  47.6269 309.4793 15.08805324  3632,6917.986,95.44,541.321,538.381,0.0
51138.0,STARLINK-3177,PAYLOAD,2022-05-03 04:00:00,15.08847527,0.000221,53.2142,133.2465,47.1456,228.5711,-0.0015585,-0.00025012,0.0,0 STARLINK-3177,1 51138U 22005AL  22123.16667824 -.00025012  00000-0 -15585-2 0  9995,2 51138  53.2142 133.2465 0002210  47.1456 228.5711 15.08847527 17510,6917.857,95.437,541.251,538.194,0.0
51138.0,STARLINK-3177,PAYLOAD,2022-05-03 14:00:01,15.08843826,0.000232,53.2138,131.3765,43.4726,336.7316,-0.00058616,-9.606e-05,0.0,0 STARLINK-3177,1 51138U 22005AL  22123.58334491 -.00009606  00000-0 -58616-3 0  9996,2 51138  53.2138 131.3765 0002320  43.4726 336.7316 15.08843826  3581,6917.869000000002,95.437,541.339,538.129,0.0
51138.0,STARLINK-3177,PAYLOAD,2022-05-03 22:00:00,15.08817389,0.0002135,53.2141,129.8786,49.3922,342.416,0.0031109,0.0004954,0.0,0 STARLINK-3177,1 51138U 22005AL  22123.91667824  .00049540  00000-0  31109-2 0  9998,2 51138  53.2141 129.8786 0002135  49.3922 342.4160 15.08817389 17623,6917.95,95.439,541.2909999999998,538.3380000000002,0.0
51138.0,STARLINK-3177,PAYLOAD,2022-05-04 12:00:00,15.08833397,0.0002345,53.2139,127.2618,44.8708,277.2305,0.001859,0.00029417,0.0,0 STARLINK-3177,1 51138U 22005AL  22124.50001157  .00029417  00000-0  18590-2 0  9995,2 51138  53.2139 127.2618 0002345  44.8708 277.2305 15.08833397 17714,6917.901,95.438,541.388,538.143,0.0
51138.0,STARLINK-3177,PAYLOAD,2022-05-04 14:00:01,15.08856143,0.0002329,53.2138,126.8872,45.5774,9.4174,-0.00095245,-0.00015422,0.0,0 STARLINK-3177,1 51138U 22005AL  22124.58334491 -.00015422  00000-0 -95245-3 0  9999,2 51138  53.2138 126.8872 0002329  45.5774   9.4174 15.08856143  3610,6917.831,95.437,541.307,538.085,0.0
51138.0,STARLINK-3177,PAYLOAD,2022-05-04 22:00:01,15.0883114,0.0002165,53.214,125.3892,51.5869,15.0879,0.0028491,0.00045337,0.0,0 STARLINK-3177,1 51138U 22005AL  22124.91668981  .00045337  00000-0  28491-2 0  9994,2 51138  53.2140 125.3892 0002165  51.5869  15.0879 15.08831140  3625,6917.906999999997,95.438,541.27,538.275,0.0
51138.0,STARLINK-3177,PAYLOAD,2022-05-05 06:00:00,15.08861467,0.0002279,53.214,123.8946,47.9692,30.2472,-0.0037547,-0.00059588,0.0,0 STARLINK-3177,1 51138U 22005AL  22125.25001157 -.00059588  00000-0 -37547-2 0  9995,2 51138  53.2140 123.8946 0002279  47.9692  30.2472 15.08861467 17838,6917.815,95.436,541.256,538.1030000000002,0.0
51138.0,STARLINK-3177,PAYLOAD,2022-05-05 14:00:01,15.08840251,0.0002255,53.2137,122.3979,45.8352,43.9732,-0.0011786,-0.00018998,0.0,0 STARLINK-3177,1 51138U 22005AL  22125.58334491 -.00018998  00000-0 -11786-2 0  9998,2 51138  53.2137 122.3979 0002255  45.8352  43.9732 15.08840251  3583,6917.88,95.438,541.305,538.185,0.0
51138.0,STARLINK-3177,PAYLOAD,2022-05-05 22:00:00,15.08815266,0.0002125,53.2139,120.9002,51.7771,49.6222,0.0023914,0.00037951,0.0,0 STARLINK-3177,1 51138U 22005AL  22125.91667824  .00037951  00000-0  23914-2 0  9998,2 51138  53.2139 120.9002 0002125  51.7771  49.6222 15.08815266 17932,6917.956,95.439,541.2909999999998,538.351,0.0
51138.0,STARLINK-3177,PAYLOAD,2022-05-06 14:00:01,15.08850925,0.0002309,53.2137,117.9088,47.6772,76.8894,-0.0015071,-0.00024202,0.0,0 STARLINK-3177,1 51138U 22005AL  22126.58334491 -.00024202  00000-0 -15071-2 0  9995,2 51138  53.2137 117.9088 0002309  47.6772  76.8894 15.08850925 18039,6917.847,95.437,541.309,538.115,0.0
51138.0,STARLINK-3177,PAYLOAD,2022-05-07 06:00:02,15.08848323,0.00024,53.214,114.9164,49.9299,97.9012,-0.00061252,-0.00010026,0.0,0 STARLINK-3177,1 51138U 22005AL  22127.25002315 -.00010026  00000-0 -61252-3 0  9999,2 51138  53.2140 114.9164 0002400  49.9299  97.9012 15.08848323 18132,6917.855,95.437,541.38,538.06,0.0
51138.0,STARLINK-3177,PAYLOAD,2022-05-07 14:00:01,15.08868025,0.0002369,53.2139,113.4194,48.8616,110.5039,-0.0020108,-0.00032174,0.0,0 STARLINK-3177,1 51138U 22005AL  22127.58334491 -.00032174  00000-0 -20108-2 0  9990,2 51138  53.2139 113.4194 0002369  48.8616 110.5039 15.08868025  3611,6917.795,95.436,541.299,538.021,0.0
51138.0,STARLINK-3177,PAYLOAD,2022-05-07 22:00:00,15.08828689,0.0002227,53.2143,111.9215,52.5145,118.5712,0.0006821,0.00010581,0.0,0 STARLINK-3177,1 51138U 22005AL  22127.91667824  .00010581  00000-0  68210-3 0  9999,2 51138  53.2143 111.9215 0002227  52.5145 118.5712 15.08828689 18237,6917.915,95.438,541.321,538.239,0.0
51138.0,STARLINK-3177,PAYLOAD,2022-05-08 14:00:01,15.08831759,0.0002308,53.2144,108.9298,47.1655,147.0746,-0.0018652,-0.00029845,0.0,0 STARLINK-3177,1 51138U 22005AL  22128.58334491 -.00029845  00000-0 -18652-2 0  9993,2 51138  53.2144 108.9298 0002308  47.1655 147.0746 15.08831759 18338,6917.906,95.438,541.367,538.174,0.0
51138.0,STARLINK-3177,PAYLOAD,2022-05-08 22:00:00,15.0881467,0.0002245,53.2147,107.4324,52.4863,153.3268,0.0017291,0.00027319,0.0,0 STARLINK-3177,1 51138U 22005AL  22128.91667824  .00027319  00000-0  17291-2 0  9999,2 51138  53.2147 107.4324 0002245  52.4863 153.3268 15.08814670  3577,6917.958000000001,95.439,541.376,538.27,0.0
51138.0,STARLINK-3177,PAYLOAD,2022-05-09 06:00:00,15.088234,0.0002444,53.2146,105.9378,48.5718,168.8212,0.00045205,6.91e-05,0.0,0 STARLINK-3177,1 51138U 22005AL  22129.25001157  .00006910  00000-0  45205-3 0  9999,2 51138  53.2146 105.9378 0002444  48.5718 168.8212 15.08823400 18436,6917.931,95.439,541.487,538.105,0.0
51138.0,STARLINK-3177,PAYLOAD,2022-05-09 14:00:01,15.08851322,0.0002371,53.2148,104.4404,49.1695,179.8606,-0.001902,-0.00030442,0.0,0 STARLINK-3177,1 51138U 22005AL  22129.58335648 -.00030442  00000-0 -19020-2 0  9994,2 51138  53.2148 104.4404 0002371  49.1695 179.8606 15.08851322  3563,6917.846,95.437,541.351,538.071,0.0
51138.0,STARLINK-3177,PAYLOAD,2022-05-09 22:00:00,15.08836145,0.0002304,53.2151,102.9432,54.2615,186.3,0.0015573,0.00024581,0.0,0 STARLINK-3177,1 51138U 22005AL  22129.91667824  .00024581  00000-0  15573-2 0  9999,2 51138  53.2151 102.9432 0002304  54.2615 186.3000 15.08836145  3563,6917.892,95.438,541.351,538.163,0.0
51138.0,STARLINK-3177,PAYLOAD,2022-05-10 14:00:01,15.08847209,0.0002306,53.2148,99.951,49.5637,214.1968,-0.0024101999999999,-0.00038451,0.0,0 STARLINK-3177,1 51138U 22005AL  22130.58334491 -.00038451  00000-0 -24102-2 0  9996,2 51138  53.2148  99.9510 0002306  49.5637 214.1968 15.08847209 18634,6917.858,95.437,541.319,538.128,0.0
51138.0,STARLINK-3177,PAYLOAD,2022-05-10 18:00:00,15.08806311,0.0002206,53.215,99.202,52.2331,37.3311,0.0027039,0.00042968,0.0,0 STARLINK-3177,1 51138U 22005AL  22130.75001157  .00042968  00000-0  27039-2 0  9993,2 51138  53.2150  99.2020 0002206  52.2331  37.3311 15.08806311  3581,6917.983,95.44,541.374,538.322,0.0
51138.0,STARLINK-3177,PAYLOAD,2022-05-11 22:00:00,15.08833273,0.0002163,53.215,93.9643,55.8515,254.272,0.00015149,2.123e-05,0.0,0 STARLINK-3177,1 51138U 22005AL  22131.91667824  .00002123  00000-0  15149-3 0  9990,2 51138  53.2150  93.9643 0002163  55.8515 254.2720 15.08833273 18833,6917.901,95.438,541.262,538.27,0.0
51138.0,STARLINK-3177,PAYLOAD,2022-05-12 14:00:01,15.08844113,0.0002211,53.2146,90.9722,53.0282,280.2573,-0.0015036,-0.00024142,0.0,0 STARLINK-3177,1 51138U 22005AL  22132.58334491 -.00024142  00000-0 -15036-2 0  9996,2 51138  53.2146  90.9722 0002211  53.0282 280.2573 15.08844113  1302,6917.868,95.437,541.262,538.203,0.0
51138.0,STARLINK-3177,PAYLOAD,2022-05-12 22:00:00,15.08851815,0.0002156,53.2147,89.4751,57.7446,287.1405,0.00064529,0.0001,0.0,0 STARLINK-3177,1 51138U 22005AL  22132.91667824  .00010000  00000-0  64529-3 0  9990,2 51138  53.2147  89.4751 0002156  57.7446 287.1405 15.08851815  1306,6917.844,95.437,541.201,538.2180000000002,0.0
51138.0,STARLINK-3177,PAYLOAD,2022-05-13 06:00:00,15.08850595,0.0002283,53.2146,87.9804,52.249,304.2495,-0.0012308,-0.0001983,0.0,0 STARLINK-3177,1 51138U 22005AL  22133.25001157 -.00019830  00000-0 -12308-2 0  9998,2 51138  53.2146  87.9804 0002283  52.2490 304.2495 15.08850595 19030,6917.848000000001,95.437,541.2919999999998,538.134,0.0
51138.0,STARLINK-3177,PAYLOAD,2022-05-13 14:00:01,15.08851612,0.0002099,53.2143,86.4824,53.3787,314.7196,-0.0026427,-0.00042116,0.0,0 STARLINK-3177,1 51138U 22005AL  22133.58334491 -.00042116  00000-0 -26427-2 0  9994,2 51138  53.2143  86.4824 0002099  53.3787 314.7196 15.08851612  1305,6917.845,95.437,541.1619999999998,538.258,0.0
51138.0,STARLINK-3177,PAYLOAD,2022-05-13 22:00:00,15.08828472,0.0002034,53.2145,84.9858,56.6893,322.9999,-0.00040403,-6.711e-05,0.0,0 STARLINK-3177,1 51138U 22005AL  22133.91667824 -.00006711  00000-0 -40403-3 0  9992,2 51138  53.2145  84.9858 0002034  56.6893 322.9999 15.08828472  1300,6917.916,95.438,541.188,538.374,0.0
51138.0,STARLINK-3177,PAYLOAD,2022-05-14 14:00:01,15.08839076,0.0002061,53.2146,81.993,53.9957,348.8503,-3.7688e-05,-8.88e-06,0.0,0 STARLINK-3177,1 51138U 22005AL  22134.58334491 -.00000888  00000-0 -37688-4 0  9998,2 51138  53.2146  81.9930 0002061  53.9957 348.8503 15.08839076 19231,6917.8830000000025,95.438,541.174,538.322,0.0
51138.0,STARLINK-3177,PAYLOAD,2022-05-14 22:00:00,15.0885962,0.0002064,53.2149,80.4965,57.0188,357.4182,0.00010397,1.368e-05,0.0,0 STARLINK-3177,1 51138U 22005AL  22134.91667824  .00001368  00000-0  10397-3 0  9993,2 51138  53.2149  80.4965 0002064  57.0188 357.4182 15.08859620  1305,6917.82,95.436,541.113,538.258,0.0
